1 47545U 21006EF  21130.43756703  .00001648  00000-0  97177-4 0  9990
2 47545  97.4929 192.3432 0010409 222.6794 137.3629 15.12915445 17272
1 47545U 21006EF  21130.76826490  .00001596  00000-0  94228-4 0  9993
2 47545  97.4928 192.6680 0010460 221.3790 138.6649 15.12916163 17328
1 47545U 21006EF  21130.90054369  .00001626  00000-0  95934-4 0  9996
2 47545  97.4928 192.7980 0010475 220.8944 139.1502 15.12916811 17349
1 47545U 21006EF  21131.23124137  .00001621  00000-0  95627-4 0  9998
2 47545  97.4927 193.1228 0010492 219.5162 140.5305 15.12917787 17399
1 47545U 21006EF  21131.76035736  .00001388  00000-0  82422-4 0  9991
2 47545  97.4927 193.6428 0010557 217.6589 142.3904 15.12918047 17474
1 47545U 21006EF  21132.22333395  .00001151  00000-0  68992-4 0  9999
2 47545  97.4926 194.0976 0010591 215.8485 144.2036 15.12917935 17549
1 47545U 21006EF  21132.42175213  .00001146  00000-0  68699-4 0  9992
2 47545  97.4926 194.2925 0010608 215.0908 144.9625 15.12918452 17575
1 47545U 21006EF  21132.68630895  .00001540  00000-0  91034-4 0  9999
2 47545  97.4926 194.5525 0010640 214.2440 145.8106 15.12921498 17615
1 47545U 21006EF  21133.74453896  .00001157  00000-0  69326-4 0  9994
2 47545  97.4926 195.5922 0010717 210.2062 149.8552 15.12921871 17779
1 47545U 21006EF  21134.14137490  .00000868  00000-0  52893-4 0  9997
2 47545  97.4924 195.9821 0010764 208.6741 151.3899 15.12921240 17835
1 47545U 21006EF  21134.93504621  .00000790  00000-0  48495-4 0  9995
2 47545  97.4925 196.7620 0010834 205.6759 154.3936 15.12922208 17959
1 47545U 21006EF  21135.13346392  .00000788  00000-0  48371-4 0  9997
2 47545  97.4924 196.9570 0010850 204.9467 155.1241 15.12922548 17988
1 47545U 21006EF  21135.72871629  .00000919  00000-0  55779-4 0  9994
2 47545  97.4924 197.5418 0010899 202.7428 157.3322 15.12924386 18079
1 47545U 21006EF  21136.39010729  .00000856  00000-0  52218-4 0  9999
2 47545  97.4923 198.1915 0010976 200.3711 159.7083 15.12925312 18173
1 47545U 21006EF  21136.72080253  .00000888  00000-0  54059-4 0  9995
2 47545  97.4923 198.5164 0011002 199.1547 160.9272 15.12926157 18224
1 47545U 21006EF  21137.71288729  .00000881  00000-0  53619-4 0  9997
2 47545  97.4922 199.4911 0011093 195.6444 164.4445 15.12928201 18379
1 47545U 21006EF  21138.24199853  .00000920  00000-0  55854-4 0  9992
2 47545  97.4921 200.0109 0011153 193.8173 166.2754 15.12929573 18457
1 47545U 21006EF  21138.77110913  .00001005  00000-0  60664-4 0  9990
2 47545  97.4920 200.5307 0011214 191.9998 168.0967 15.12931312 18532
1 47545U 21006EF  21139.10180310  .00000999  00000-0  60327-4 0  9993
2 47545  97.4920 200.8556 0011249 190.8980 169.2009 15.12932078 18583
1 47545U 21006EF  21139.16794159  .00001053  00000-0  63388-4 0  9993
2 47545  97.4920 200.9206 0011250 190.7212 169.3781 15.12932621 18598
1 47545U 21006EF  21139.76318937  .00001196  00000-0  71453-4 0  9995
2 47545  97.4920 201.5054 0011308 188.5585 171.5455 15.12935144 18684
1 47545U 21006EF  21140.16002069  .00001221  00000-0  72879-4 0  9999
2 47545  97.4920 201.8953 0011351 187.3387 172.7680 15.12936521 18740
1 47545U 21006EF  21140.22615913  .00001251  00000-0  74610-4 0  9992
2 47545  97.4920 201.9603 0011359 187.1881 172.9189 15.12936909 18755
1 47545U 21006EF  21140.62299022  .00001328  00000-0  78968-4 0  9990
2 47545  97.4920 202.3501 0011402 185.7460 174.3642 15.12938582 18819
1 47545U 21006EF  21141.41665167  .00001479  00000-0  87488-4 0  9999
2 47545  97.4920 203.1299 0011481 182.9101 177.2065 15.12941842 18937
1 47545U 21006EF  21141.74734430  .00001124  00000-0  67368-4 0  9997
2 47545  97.4920 203.4548 0011524 181.8110 178.3081 15.12940777 18984
1 47545U 21006EF  21142.14417487  .00001097  00000-0  65843-4 0  9997
2 47545  97.4919 203.8446 0011557 180.3969 179.7255 15.12941691 19047
1 47545U 21006EF  21142.73942005  .00001102  00000-0  66111-4 0  9997
2 47545  97.4919 204.4294 0011627 178.3452 181.7820 15.12943305 19132
1 47545U 21006EF  21143.13625021  .00001031  00000-0  62081-4 0  9991
2 47545  97.4918 204.8193 0011667 176.9575 183.1729 15.12943841 19192
1 47545U 21006EF  21143.59921834  .00001024  00000-0  61689-4 0  9997
2 47545  97.4919 205.2742 0011710 175.3039 184.8304 15.12944876 19269
1 47545U 21006EF  21143.92990977  .00001097  00000-0  65832-4 0  9992
2 47545  97.4918 205.5991 0011741 174.2077 185.9292 15.12945928 19314
1 47545U 21006EF  21144.39287723  .00001083  00000-0  65023-4 0  9999
2 47545  97.4917 206.0539 0011778 172.5197 187.6212 15.12946933 19386
1 47545U 21006EF  21144.92198271  .00001000  00000-0  60334-4 0  9996
2 47545  97.4917 206.5738 0011850 170.7724 189.3727 15.12947583 19460
1 47545U 21006EF  21145.25267318  .00000971  00000-0  58682-4 0  9991
2 47545  97.4917 206.8986 0011885 169.6746 190.4731 15.12948198 19514
1 47545U 21006EF  21145.84791554  .00001025  00000-0  61747-4 0  9997
2 47545  97.4915 207.4835 0011925 167.7229 192.4295 15.12949825 19607
1 47545U 21006EF  21146.11246759  .00001020  00000-0  61480-4 0  9999
2 47545  97.4915 207.7434 0011945 166.8539 193.3005 15.12950394 19647
1 47545U 21006EF  21146.44315545  .00001201  00000-0  71711-4 0  9994
2 47545  97.4916 208.0682 0012008 166.0972 194.0592 15.12952681 19696
1 47545U 21006EF  21146.83998340  .00001109  00000-0  66514-4 0  9999
2 47545  97.4916 208.4580 0012055 164.9221 195.2372 15.12952958 19756
1 47545U 21006EF  21147.23680918  .00001463  00000-0  86558-4 0  9996
2 47545  97.4915 208.8479 0012054 163.2503 196.9128 15.12956275 19810
1 47545U 21006EF  21147.43522249  .00001460  00000-0  86362-4 0  9990
2 47545  97.4915 209.0428 0012072 162.5876 197.5772 15.12956819 19841
1 47545U 21006EF  21147.83204797  .00001638  00000-0  96431-4 0  9994
2 47545  97.4915 209.4327 0012107 161.4141 198.7534 15.12959190 19906
1 47545U 21006EF  21148.42728741  .00001809  00000-0  10613-3 0  9997
2 47545  97.4915 210.0174 0012156 159.3854 200.7870 15.12961706 19997
1 47545U 21006EF  21148.75797500  .00001405  00000-0  83253-4 0  9995
2 47545  97.4914 210.3423 0012192 158.3302 201.8448 15.12960746 20047
1 47545U 21006EF  21149.41935114  .00001224  00000-0  73002-4 0  9994
2 47545  97.4914 210.9920 0012253 156.2306 203.9493 15.12961557 20149
1 47545U 21006EF  21149.75003853  .00001243  00000-0  74063-4 0  9996
2 47545  97.4914 211.3170 0012284 155.2197 204.9626 15.12962692 20197
1 47545U 21006EF  21149.88231356  .00001300  00000-0  77266-4 0  9993
2 47545  97.4914 211.4468 0012295 154.7647 205.4187 15.12963337 20212
1 47545U 21006EF  21150.21300145  .00001115  00000-0  66799-4 0  9998
2 47545  97.4913 211.7717 0012333 153.6102 206.5760 15.12963148 20262
1 47545U 21006EF  21150.74210086  .00001065  00000-0  64000-4 0  9997
2 47545  97.4913 212.2916 0012376 151.9225 208.2676 15.12964340 20342
1 47545U 21006EF  21151.13892565  .00000935  00000-0  56623-4 0  9996
2 47545  97.4914 212.6814 0012405 150.6545 209.5385 15.12964497 20409
1 47545U 21006EF  21151.40347531  .00000824  00000-0  50346-4 0  9997
2 47545  97.4913 212.9413 0012449 149.7828 210.4123 15.12964542 20443
1 47545U 21006EF  21151.73416245  .00000766  00000-0  47056-4 0  9991
2 47545  97.4913 213.2661 0012479 148.7251 211.4725 15.12964799 20492
1 47545U 21006EF  21152.39553546  .00000830  00000-0  50647-4 0  9992
2 47545  97.4912 213.9159 0012535 146.6762 213.5261 15.12966462 20595
1 47545U 21006EF  21153.45373115  .00000939  00000-0  56837-4 0  9999
2 47545  97.4911 214.9553 0012623 143.4784 216.7311 15.12969040 20754
1 47545U 21006EF  21154.18123984  .00000961  00000-0  58095-4 0  9990
2 47545  97.4910 215.6700 0012663 141.1702 219.0441 15.12970535 20867
1 47545U 21006EF  21155.10715905  .00000973  00000-0  58741-4 0  9994
2 47545  97.4909 216.5796 0012727 138.3222 221.8981 15.12972368 21009
1 47545U 21006EF  21155.90080342  .00000946  00000-0  57215-4 0  9997
2 47545  97.4909 217.3593 0012772 135.8594 224.3658 15.12973736 21129
1 47545U 21006EF  21156.42989956  .00000881  00000-0  53521-4 0  9998
2 47545  97.4909 217.8790 0012799 134.1165 226.1122 15.12974334 21208
1 47545U 21006EF  21156.76058434  .00000870  00000-0  52899-4 0  9998
2 47545  97.4908 218.2038 0012826 133.1038 227.1268 15.12974925 21259
1 47545U 21006EF  21157.42195374  .00000845  00000-0  51518-4 0  9996
2 47545  97.4908 218.8535 0012880 130.9982 229.2365 15.12975990 21355
1 47545U 21006EF  21157.75263818  .00000828  00000-0  50533-4 0  9998
2 47545  97.4908 219.1783 0012892 130.0127 230.2238 15.12976521 21407
1 47545U 21006EF  21157.88491219  .00000544  00000-0  34467-4 0  9993
2 47545  97.4908 219.3082 0012908 129.6400 230.5972 15.12975174 21420
1 47545U 21006EF  21158.41400699  .00000604  00000-0  37853-4 0  9994
2 47545  97.4908 219.8280 0012947 127.9586 232.2817 15.12976426 21501
1 47545U 21006EF  21158.67855426  .00000596  00000-0  37420-4 0  9994
2 47545  97.4908 220.0878 0012956 127.2324 233.0091 15.12976844 21542
1 47545U 21006EF  21159.07537521  .00000586  00000-0  36853-4 0  9990
2 47545  97.4908 220.4777 0012966 125.9530 234.2906 15.12977382 21602
1 47545U 21006EF  21159.40605788  .00000805  00000-0  49234-4 0  9999
2 47545  97.4909 220.8026 0012976 124.9812 235.2639 15.12979446 21659
1 47545U 21006EF  21159.73674161  .00000816  00000-0  49865-4 0  9998
2 47545  97.4909 221.1274 0012989 123.9529 236.2939 15.12980018 21703
1 47545U 21006EF  21160.13356166  .00000786  00000-0  48138-4 0  9994
2 47545  97.4907 221.5172 0013031 122.7165 237.5324 15.12980538 21769
1 47545U 21006EF  21160.59651722  .00000932  00000-0  56425-4 0  9991
2 47545  97.4907 221.9719 0013064 121.2467 239.0045 15.12982404 21834
1 47545U 21006EF  21160.66265381  .00000933  00000-0  56488-4 0  9991
2 47545  97.4907 222.0369 0013068 121.0359 239.2157 15.12982532 21848
1 47545U 21006EF  21161.12560989  .00001005  00000-0  60508-4 0  9994
2 47545  97.4906 222.4917 0013081 119.6429 240.6106 15.12983696 21916
1 47545U 21006EF  21161.72083845  .00000901  00000-0  54662-4 0  9999
2 47545  97.4906 223.0763 0013104 117.9268 242.3292 15.12984293 22000
